[{"OBJECT_NAME":"SL-12 R/B(2)","OBJECT_ID":"1985-102D","EPOCH":"2026-03-03T15:11:38.751360","MEAN_MOTION":1.00617432,"ECCENTRICITY":0.00186636,"INCLINATION":9.6262,"RA_OF_ASC_NODE":318.6704,"ARG_OF_PERICENTER":154.921,"MEAN_ANOMALY":99.3384,"EPHEMERIS_TYPE":0,"CLASSIFICATION_TYPE":"U","NORAD_CAT_ID":16214,"ELEMENT_SET_NO":999,"REV_AT_EPOCH":12378,"BSTAR":0,"MEAN_MOTION_DOT":8.1e-7,"MEAN_MOTION_DDOT":0},{"OBJECT_NAME":"RADUGA 17","OBJECT_ID":"1985-107A","EPOCH":"2026-03-03T17:03:25.235136","MEAN_MOTION":1.00166971,"ECCENTRICITY":0.00125439,"INCLINATION":9.785,"RA_OF_ASC_NODE":319.0155,"ARG_OF_PERICENTER":239.3658,"MEAN_ANOMALY":348.5011,"EPHEMERIS_TYPE":0,"CLASSIFICATION_TYPE":"U","NORAD_CAT_ID":16250,"ELEMENT_SET_NO":999,"REV_AT_EPOCH":15061,"BSTAR":0,"MEAN_MOTION_DOT":-3.69e-6,"MEAN_MOTION_DDOT":0},{"OBJECT_NAME":"MORELOS 2","OBJECT_ID":"1985-109B","EPOCH":"2026-03-03T13:52:38.736768","MEAN_MOTION":0.99569559,"ECCENTRICITY":0.000241,"INCLINATION":14.759,"RA_OF_ASC_NODE":357.5013,"ARG_OF_PERICENTER":178.0151,"MEAN_ANOMALY":3.7027,"EPHEMERIS_TYPE":0,"CLASSIFICATION_TYPE":"U","NORAD_CAT_ID":16274,"ELEMENT_SET_NO":999,"REV_AT_EPOCH":4530,"BSTAR":0,"MEAN_MOTION_DOT":-1.94e-6,"MEAN_MOTION_DDOT":0},{"OBJECT_NAME":"OPTUS A2 (AUSSAT 2)","OBJECT_ID":"1985-109C","EPOCH":"2026-03-02T11:22:58.272384","MEAN_MOTION":0.99943762,"ECCENTRICITY":0.00063501,"INCLINATION":13.4453,"RA_OF_ASC_NODE":340.8999,"ARG_OF_PERICENTER":318.9289,"MEAN_ANOMALY":241.9667,"EPHEMERIS_TYPE":0,"CLASSIFICATION_TYPE":"U","NORAD_CAT_ID":16275,"ELEMENT_SET_NO":999,"REV_AT_EPOCH":4546,"BSTAR":0,"MEAN_MOTION_DOT":9.0e-7,"MEAN_MOTION_DDOT":0},{"OBJECT_NAME":"SATCOM K2","OBJECT_ID":"1985-109D","EPOCH":"2026-03-03T13:44:14.769024","MEAN_MOTION":0.99616065,"ECCENTRICITY":0.0013224,"INCLINATION":14.7329,"RA_OF_ASC_NODE":353.1944,"ARG_OF_PERICENTER":287.6608,"MEAN_ANOMALY":251.3862,"EPHEMERIS_TYPE":0,"CLASSIFICATION_TYPE":"U","NORAD_CAT_ID":16276,"ELEMENT_SET_NO":999,"REV_AT_EPOCH":12454,"BSTAR":0,"MEAN_MOTION_DOT":-2.23e-6,"MEAN_MOTION_DDOT":0},{"OBJECT_NAME":"MOLNIYA 3-27","OBJECT_ID":"1985-117A","EPOCH":"2026-02-26T23:03:59.507424","MEAN_MOTION":2.12406012,"ECCENTRICITY":0.71188131,"INCLINATION":62.0524,"RA_OF_ASC_NODE":241.3493,"ARG_OF_PERICENTER":250.8314,"MEAN_ANOMALY":24.665,"EPHEMERIS_TYPE":0,"CLASSIFICATION_TYPE":"U","NORAD_CAT_ID":16393,"ELEMENT_SET_NO":999,"REV_AT_EPOCH":30286,"BSTAR":-0.013036026,"MEAN_MOTION_DOT":3.9e-7,"MEAN_MOTION_DDOT":0},{"OBJECT_NAME":"SL-6 R/B(2)","OBJECT_ID":"1985-117F","EPOCH":"2026-03-02T20:52:00.535296","MEAN_MOTION":1.9655625,"ECCENTRICITY":0.73710507,"INCLINATION":63.3337,"RA_OF_ASC_NODE":47.8993,"ARG_OF_PERICENTER":252.9556,"MEAN_ANOMALY":20.8469,"EPHEMERIS_TYPE":0,"CLASSIFICATION_TYPE":"U","NORAD_CAT_ID":16402,"ELEMENT_SET_NO":999,"REV_AT_EPOCH":28848,"BSTAR":0,"MEAN_MOTION_DOT":-7.62e-6,"MEAN_MOTION_DDOT":0},{"OBJECT_NAME":"SATCOM K1","OBJECT_ID":"1986-003B","EPOCH":"2026-03-03T10:00:13.388832","MEAN_MOTION":0.99555689,"ECCENTRICITY":0.00044494,"INCLINATION":14.7112,"RA_OF_ASC_NODE":351.8981,"ARG_OF_PERICENTER":289.4294,"MEAN_ANOMALY":253.2968,"EPHEMERIS_TYPE":0,"CLASSIFICATION_TYPE":"U","NORAD_CAT_ID":16482,"ELEMENT_SET_NO":999,"REV_AT_EPOCH":12339,"BSTAR":0,"MEAN_MOTION_DOT":7.1e-7,"MEAN_MOTION_DDOT":0},{"OBJECT_NAME":"RADUGA 18","OBJECT_ID":"1986-007A","EPOCH":"2026-03-04T01:46:12.919296","MEAN_MOTION":0.98812788,"ECCENTRICITY":0.0069098,"INCLINATION":10.6877,"RA_OF_ASC_NODE":321.8555,"ARG_OF_PERICENTER":199.7294,"MEAN_ANOMALY":327.0738,"EPHEMERIS_TYPE":0,"CLASSIFICATION_TYPE":"U","NORAD_CAT_ID":16497,"ELEMENT_SET_NO":999,"REV_AT_EPOCH":14482,"BSTAR":0,"MEAN_MOTION_DOT":-1.7e-6,"MEAN_MOTION_DDOT":0},{"OBJECT_NAME":"STTW-1","OBJECT_ID":"1986-010A","EPOCH":"2026-03-04T03:59:38.679360","MEAN_MOTION":1.00244459,"ECCENTRICITY":0.0003948,"INCLINATION":10.7659,"RA_OF_ASC_NODE":324.2264,"ARG_OF_PERICENTER":313.303,"MEAN_ANOMALY":44.2191,"EPHEMERIS_TYPE":0,"CLASSIFICATION_TYPE":"U","NORAD_CAT_ID":16526,"ELEMENT_SET_NO":999,"REV_AT_EPOCH":15440,"BSTAR":0,"MEAN_MOTION_DOT":-3.21e-6,"MEAN_MOTION_DDOT":0},{"OBJECT_NAME":"GSTAR 2","OBJECT_ID":"1986-026A","EPOCH":"2026-02-28T00:31:13.117440","MEAN_MOTION":0.99801836,"ECCENTRICITY":0.00034476,"INCLINATION":14.2559,"RA_OF_ASC_NODE":346.673,"ARG_OF_PERICENTER":12.6884,"MEAN_ANOMALY":170.3094,"EPHEMERIS_TYPE":0,"CLASSIFICATION_TYPE":"U","NORAD_CAT_ID":16649,"ELEMENT_SET_NO":999,"REV_AT_EPOCH":11555,"BSTAR":0,"MEAN_MOTION_DOT":-9.1e-7,"MEAN_MOTION_DDOT":0},{"OBJECT_NAME":"BRASILSAT 2","OBJECT_ID":"1986-026B","EPOCH":"2026-03-03T22:49:23.799360","MEAN_MOTION":0.99638934,"ECCENTRICITY":0.0005167,"INCLINATION":14.5619,"RA_OF_ASC_NODE":351.2069,"ARG_OF_PERICENTER":326.6927,"MEAN_ANOMALY":226.6689,"EPHEMERIS_TYPE":0,"CLASSIFICATION_TYPE":"U","NORAD_CAT_ID":16650,"ELEMENT_SET_NO":999,"REV_AT_EPOCH":4533,"BSTAR":0,"MEAN_MOTION_DOT":8.4e-7,"MEAN_MOTION_DDOT":0},{"OBJECT_NAME":"ARIANE 3 R/B","OBJECT_ID":"1986-026C","EPOCH":"2026-03-03T19:09:51.940512","MEAN_MOTION":2.25760958,"ECCENTRICITY":0.7225179,"INCLINATION":6.5293,"RA_OF_ASC_NODE":96.5338,"ARG_OF_PERICENTER":145.5154,"MEAN_ANOMALY":295.5071,"EPHEMERIS_TYPE":0,"CLASSIFICATION_TYPE":"U","NORAD_CAT_ID":16657,"ELEMENT_SET_NO":999,"REV_AT_EPOCH":27757,"BSTAR":0.00047618,"MEAN_MOTION_DOT":7.7e-7,"MEAN_MOTION_DDOT":0},{"OBJECT_NAME":"COSMOS 1738","OBJECT_ID":"1986-027A","EPOCH":"2026-03-03T22:36:47.508192","MEAN_MOTION":1.00259739,"ECCENTRICITY":0.0011574,"INCLINATION":10.4389,"RA_OF_ASC_NODE":318.5249,"ARG_OF_PERICENTER":135.5195,"MEAN_ANOMALY":42.5126,"EPHEMERIS_TYPE":0,"CLASSIFICATION_TYPE":"U","NORAD_CAT_ID":16667,"ELEMENT_SET_NO":999,"REV_AT_EPOCH":14629,"BSTAR":0,"MEAN_MOTION_DOT":-6.7e-7,"MEAN_MOTION_DDOT":0},{"OBJECT_NAME":"GORIZONT 12","OBJECT_ID":"1986-044A","EPOCH":"2026-03-03T17:23:38.768064","MEAN_MOTION":1.00344,"ECCENTRICITY":0.00053651,"INCLINATION":10.2175,"RA_OF_ASC_NODE":321.8008,"ARG_OF_PERICENTER":321.5943,"MEAN_ANOMALY":224.5362,"EPHEMERIS_TYPE":0,"CLASSIFICATION_TYPE":"U","NORAD_CAT_ID":16769,"ELEMENT_SET_NO":999,"REV_AT_EPOCH":14620,"BSTAR":0,"MEAN_MOTION_DOT":-2.29e-6,"MEAN_MOTION_DDOT":0},{"OBJECT_NAME":"SL-6 R/B(2)","OBJECT_ID":"1986-050D","EPOCH":"2026-03-04T01:42:05.813568","MEAN_MOTION":2.02805681,"ECCENTRICITY":0.6595537,"INCLINATION":65.7521,"RA_OF_ASC_NODE":291.9098,"ARG_OF_PERICENTER":3.215,"MEAN_ANOMALY":180.0557,"EPHEMERIS_TYPE":0,"CLASSIFICATION_TYPE":"U","NORAD_CAT_ID":16854,"ELEMENT_SET_NO":999,"REV_AT_EPOCH":29381,"BSTAR":0,"MEAN_MOTION_DOT":7.71e-6,"MEAN_MOTION_DDOT":0},{"OBJECT_NAME":"MOLNIYA 1-69","OBJECT_ID":"1986-089A","EPOCH":"2026-02-27T21:28:40.161792","MEAN_MOTION":2.0104534,"ECCENTRICITY":0.73340738,"INCLINATION":63.5995,"RA_OF_ASC_NODE":27.2281,"ARG_OF_PERICENTER":252.7522,"MEAN_ANOMALY":21.3531,"EPHEMERIS_TYPE":0,"CLASSIFICATION_TYPE":"U","NORAD_CAT_ID":17078,"ELEMENT_SET_NO":999,"REV_AT_EPOCH":28794,"BSTAR":0.0011346495,"MEAN_MOTION_DOT":-1.046e-5,"MEAN_MOTION_DDOT":0}]
