SL-12 R/B(2)            
1 16214U 85102D   26062.63308740  .00000081  00000+0  00000+0 0  9994
2 16214   9.6262 318.6704 0018663 154.9210  99.3384  1.00617432123787
RADUGA 17               
1 16250U 85107A   26062.71070874 -.00000369  00000+0  00000+0 0  9992
2 16250   9.7850 319.0155 0012543 239.3658 348.5011  1.00166971150616
MORELOS 2               
1 16274U 85109B   26062.57822612 -.00000194  00000+0  00000+0 0  9995
2 16274  14.7590 357.5013 0002410 178.0151   3.7027  0.99569559 45300
OPTUS A2 (AUSSAT 2)     
1 16275U 85109C   26061.47428556  .00000090  00000+0  00000+0 0  9997
2 16275  13.4453 340.8999 0006350 318.9289 241.9667  0.99943762 45462
SATCOM K2               
1 16276U 85109D   26062.57239316 -.00000223  00000+0  00000+0 0  9993
2 16276  14.7329 353.1944 0013224 287.6608 251.3862  0.99616065124543
MOLNIYA 3-27            
1 16393U 85117A   26057.96110541  .00000039  00000+0 -13036-1 0  9997
2 16393  62.0524 241.3493 7118813 250.8314  24.6650  2.12406012302861
SL-6 R/B(2)             
1 16402U 85117F   26061.86945064 -.00000762  00000+0  00000+0 0  9996
2 16402  63.3337  47.8993 7371050 252.9556  20.8469  1.96556250288485
SATCOM K1               
1 16482U 86003B   26062.41682163  .00000071  00000+0  00000+0 0  9991
2 16482  14.7112 351.8981 0004449 289.4294 253.2968  0.99555689123392
RADUGA 18               
1 16497U 86007A   26063.07376064 -.00000170  00000+0  00000+0 0  9995
2 16497  10.6877 321.8555 0069098 199.7294 327.0738  0.98812788144820
STTW-1                  
1 16526U 86010A   26063.16641990 -.00000321  00000+0  00000+0 0  9993
2 16526  10.7659 324.2264 0003948 313.3030  44.2191  1.00244459154404
GSTAR 2                 
1 16649U 86026A   26059.02167960 -.00000091  00000+0  00000+0 0  9990
2 16649  14.2559 346.6730 0003447  12.6884 170.3094  0.99801836115555
BRASILSAT 2             
1 16650U 86026B   26062.95096990  .00000084  00000+0  00000+0 0  9993
2 16650  14.5619 351.2069 0005167 326.6927 226.6689  0.99638934 45331
ARIANE 3 R/B            
1 16657U 86026C   26062.79851783  .00000077  00000+0  47618-3 0  9993
2 16657   6.5293  96.5338 7225179 145.5154 295.5071  2.25760958277575
COSMOS 1738             
1 16667U 86027A   26062.94221653 -.00000067  00000+0  00000+0 0  9999
2 16667  10.4389 318.5249 0011574 135.5195  42.5126  1.00259739146290
GORIZONT 12             
1 16769U 86044A   26062.72475426 -.00000229  00000+0  00000+0 0  9996
2 16769  10.2175 321.8008 0005365 321.5943 224.5362  1.00344000146204
SL-6 R/B(2)             
1 16854U 86050D   26063.07090062  .00000771  00000+0  00000+0 0  9997
2 16854  65.7521 291.9098 6595537   3.2150 180.0557  2.02805681293812
MOLNIYA 1-69            
1 17078U 86089A   26058.89490928 -.00001046  00000+0  11346-2 0  9992
2 17078  63.5995  27.2281 7334073 252.7522  21.3531  2.01045340287940
